{
  "type": "FeatureCollection",
  "features": [],
  "totalFeatures": 0,
  "numberMatched": 0,
  "numberReturned": 0,
  "timeStamp": "2026-09-21T06:20:46.488Z",
  "crs": null,
  "metadata": {
    "source": "https://catalogue.data.gov.bc.ca/dataset/bc-wildfire-fire-perimeters-current",
    "wfs_url": "https://openmaps.gov.bc.ca/geo/pub/ows?service=WFS&version=2.0.0&request=GetFeature&typeNames=pub%3AWHSE_LAND_AND_NATURAL_RESOURCE.PROT_CURRENT_FIRE_POLYS_SP&outputFormat=json&srsName=EPSG%3A4326&CQL_FILTER=FIRE_STATUS+%3C%3E+%27Out%27",
    "incident_names_url": "https://wildfiresituation.nrs.gov.bc.ca/wfnews-api/publicPublishedIncident/features",
    "incident_names_enriched_count": 0,
    "excluded_status": "Out",
    "generated_at_utc": "2026-09-21T06:20:47+00:00",
    "note": "Reference only. This file contains published current-fire perimeters."
  }
}
