{
  "type": "FeatureCollection",
  "features": [
    {
      "type": "Feature",
      "id": "bcws-incident-N72306",
      "geometry": {
        "bbox": [
          -116.5695,
          49.200167,
          -116.5695,
          49.200167
        ],
        "type": "Point",
        "coordinates": [
          -116.5695,
          49.200167
        ]
      },
      "properties": {
        "FIRE_NUMBER": "N72306",
        "INCIDENT_NAME": "N72306",
        "INCIDENT_NUMBER_LABEL": "N72306",
        "INCIDENT_FIRE_YEAR": 2026,
        "FIRE_STATUS": "Being Held",
        "FIRE_SIZE_HECTARES": null,
        "TRACK_DATE": null,
        "FIRE_URL": "https://wildfiresituation.nrs.gov.bc.ca/incidents?fireYear=2026&incidentNumber=N72306",
        "DATA_SOURCE": "incident-point"
      }
    },
    {
      "type": "Feature",
      "id": "bcws-incident-N12311",
      "geometry": {
        "bbox": [
          -115.9002,
          49.220333,
          -115.9002,
          49.220333
        ],
        "type": "Point",
        "coordinates": [
          -115.9002,
          49.220333
        ]
      },
      "properties": {
        "FIRE_NUMBER": "N12311",
        "INCIDENT_NAME": "N12311",
        "INCIDENT_NUMBER_LABEL": "N12311",
        "INCIDENT_FIRE_YEAR": 2026,
        "FIRE_STATUS": "Being Held",
        "FIRE_SIZE_HECTARES": null,
        "TRACK_DATE": null,
        "FIRE_URL": "https://wildfiresituation.nrs.gov.bc.ca/incidents?fireYear=2026&incidentNumber=N12311",
        "DATA_SOURCE": "incident-point"
      }
    },
    {
      "type": "Feature",
      "id": "bcws-incident-V12039",
      "geometry": {
        "bbox": [
          -123.138167,
          49.438667,
          -123.138167,
          49.438667
        ],
        "type": "Point",
        "coordinates": [
          -123.138167,
          49.438667
        ]
      },
      "properties": {
        "FIRE_NUMBER": "V12039",
        "INCIDENT_NAME": "V12039",
        "INCIDENT_NUMBER_LABEL": "V12039",
        "INCIDENT_FIRE_YEAR": 2026,
        "FIRE_STATUS": "Under Control",
        "FIRE_SIZE_HECTARES": null,
        "TRACK_DATE": null,
        "FIRE_URL": "https://wildfiresituation.nrs.gov.bc.ca/incidents?fireYear=2026&incidentNumber=V12039",
        "DATA_SOURCE": "incident-point"
      }
    },
    {
      "type": "Feature",
      "id": "bcws-incident-N61846",
      "geometry": {
        "bbox": [
          -118.145333,
          49.230283,
          -118.145333,
          49.230283
        ],
        "type": "Point",
        "coordinates": [
          -118.145333,
          49.230283
        ]
      },
      "properties": {
        "FIRE_NUMBER": "N61846",
        "INCIDENT_NAME": "N61846",
        "INCIDENT_NUMBER_LABEL": "N61846",
        "INCIDENT_FIRE_YEAR": 2026,
        "FIRE_STATUS": "Under Control",
        "FIRE_SIZE_HECTARES": null,
        "TRACK_DATE": null,
        "FIRE_URL": "https://wildfiresituation.nrs.gov.bc.ca/incidents?fireYear=2026&incidentNumber=N61846",
        "DATA_SOURCE": "incident-point"
      }
    },
    {
      "type": "Feature",
      "id": "bcws-incident-N42050",
      "geometry": {
        "bbox": [
          -118.05725,
          50.644083,
          -118.05725,
          50.644083
        ],
        "type": "Point",
        "coordinates": [
          -118.05725,
          50.644083
        ]
      },
      "properties": {
        "FIRE_NUMBER": "N42050",
        "INCIDENT_NAME": "N42050",
        "INCIDENT_NUMBER_LABEL": "N42050",
        "INCIDENT_FIRE_YEAR": 2026,
        "FIRE_STATUS": "Under Control",
        "FIRE_SIZE_HECTARES": null,
        "TRACK_DATE": null,
        "FIRE_URL": "https://wildfiresituation.nrs.gov.bc.ca/incidents?fireYear=2026&incidentNumber=N42050",
        "DATA_SOURCE": "incident-point"
      }
    },
    {
      "type": "Feature",
      "id": "bcws-incident-N42195",
      "geometry": {
        "bbox": [
          -118.58895,
          51.545133,
          -118.58895,
          51.545133
        ],
        "type": "Point",
        "coordinates": [
          -118.58895,
          51.545133
        ]
      },
      "properties": {
        "FIRE_NUMBER": "N42195",
        "INCIDENT_NAME": "N42195",
        "INCIDENT_NUMBER_LABEL": "N42195",
        "INCIDENT_FIRE_YEAR": 2026,
        "FIRE_STATUS": "Under Control",
        "FIRE_SIZE_HECTARES": null,
        "TRACK_DATE": null,
        "FIRE_URL": "https://wildfiresituation.nrs.gov.bc.ca/incidents?fireYear=2026&incidentNumber=N42195",
        "DATA_SOURCE": "incident-point"
      }
    },
    {
      "type": "Feature",
      "id": "bcws-incident-V31813",
      "geometry": {
        "bbox": [
          -122.622467,
          50.041867,
          -122.622467,
          50.041867
        ],
        "type": "Point",
        "coordinates": [
          -122.622467,
          50.041867
        ]
      },
      "properties": {
        "FIRE_NUMBER": "V31813",
        "INCIDENT_NAME": "V31813",
        "INCIDENT_NUMBER_LABEL": "V31813",
        "INCIDENT_FIRE_YEAR": 2026,
        "FIRE_STATUS": "Under Control",
        "FIRE_SIZE_HECTARES": null,
        "TRACK_DATE": null,
        "FIRE_URL": "https://wildfiresituation.nrs.gov.bc.ca/incidents?fireYear=2026&incidentNumber=V31813",
        "DATA_SOURCE": "incident-point"
      }
    },
    {
      "type": "Feature",
      "id": "bcws-incident-N42130",
      "geometry": {
        "bbox": [
          -118.327783,
          52.05945,
          -118.327783,
          52.05945
        ],
        "type": "Point",
        "coordinates": [
          -118.327783,
          52.05945
        ]
      },
      "properties": {
        "FIRE_NUMBER": "N42130",
        "INCIDENT_NAME": "N42130",
        "INCIDENT_NUMBER_LABEL": "N42130",
        "INCIDENT_FIRE_YEAR": 2026,
        "FIRE_STATUS": "Under Control",
        "FIRE_SIZE_HECTARES": null,
        "TRACK_DATE": null,
        "FIRE_URL": "https://wildfiresituation.nrs.gov.bc.ca/incidents?fireYear=2026&incidentNumber=N42130",
        "DATA_SOURCE": "incident-point"
      }
    },
    {
      "type": "Feature",
      "id": "bcws-incident-N42129",
      "geometry": {
        "bbox": [
          -118.297217,
          52.09445,
          -118.297217,
          52.09445
        ],
        "type": "Point",
        "coordinates": [
          -118.297217,
          52.09445
        ]
      },
      "properties": {
        "FIRE_NUMBER": "N42129",
        "INCIDENT_NAME": "N42129",
        "INCIDENT_NUMBER_LABEL": "N42129",
        "INCIDENT_FIRE_YEAR": 2026,
        "FIRE_STATUS": "Under Control",
        "FIRE_SIZE_HECTARES": null,
        "TRACK_DATE": null,
        "FIRE_URL": "https://wildfiresituation.nrs.gov.bc.ca/incidents?fireYear=2026&incidentNumber=N42129",
        "DATA_SOURCE": "incident-point"
      }
    },
    {
      "type": "Feature",
      "id": "bcws-incident-N42145",
      "geometry": {
        "bbox": [
          -117.9576,
          52.0059,
          -117.9576,
          52.0059
        ],
        "type": "Point",
        "coordinates": [
          -117.9576,
          52.0059
        ]
      },
      "properties": {
        "FIRE_NUMBER": "N42145",
        "INCIDENT_NAME": "N42145",
        "INCIDENT_NUMBER_LABEL": "N42145",
        "INCIDENT_FIRE_YEAR": 2026,
        "FIRE_STATUS": "Under Control",
        "FIRE_SIZE_HECTARES": null,
        "TRACK_DATE": null,
        "FIRE_URL": "https://wildfiresituation.nrs.gov.bc.ca/incidents?fireYear=2026&incidentNumber=N42145",
        "DATA_SOURCE": "incident-point"
      }
    },
    {
      "type": "Feature",
      "id": "bcws-incident-V12288",
      "geometry": {
        "bbox": [
          -121.88255,
          49.35075,
          -121.88255,
          49.35075
        ],
        "type": "Point",
        "coordinates": [
          -121.88255,
          49.35075
        ]
      },
      "properties": {
        "FIRE_NUMBER": "V12288",
        "INCIDENT_NAME": "V12288",
        "INCIDENT_NUMBER_LABEL": "V12288",
        "INCIDENT_FIRE_YEAR": 2026,
        "FIRE_STATUS": "Under Control",
        "FIRE_SIZE_HECTARES": null,
        "TRACK_DATE": null,
        "FIRE_URL": "https://wildfiresituation.nrs.gov.bc.ca/incidents?fireYear=2026&incidentNumber=V12288",
        "DATA_SOURCE": "incident-point"
      }
    },
    {
      "type": "Feature",
      "id": "bcws-incident-K22314",
      "geometry": {
        "bbox": [
          -120.009367,
          50.578217,
          -120.009367,
          50.578217
        ],
        "type": "Point",
        "coordinates": [
          -120.009367,
          50.578217
        ]
      },
      "properties": {
        "FIRE_NUMBER": "K22314",
        "INCIDENT_NAME": "K22314",
        "INCIDENT_NUMBER_LABEL": "K22314",
        "INCIDENT_FIRE_YEAR": 2026,
        "FIRE_STATUS": "Under Control",
        "FIRE_SIZE_HECTARES": null,
        "TRACK_DATE": null,
        "FIRE_URL": "https://wildfiresituation.nrs.gov.bc.ca/incidents?fireYear=2026&incidentNumber=K22314",
        "DATA_SOURCE": "incident-point"
      }
    },
    {
      "type": "Feature",
      "id": "bcws-incident-N52047",
      "geometry": {
        "bbox": [
          -118.144533,
          50.066833,
          -118.144533,
          50.066833
        ],
        "type": "Point",
        "coordinates": [
          -118.144533,
          50.066833
        ]
      },
      "properties": {
        "FIRE_NUMBER": "N52047",
        "INCIDENT_NAME": "N52047",
        "INCIDENT_NUMBER_LABEL": "N52047",
        "INCIDENT_FIRE_YEAR": 2026,
        "FIRE_STATUS": "Under Control",
        "FIRE_SIZE_HECTARES": null,
        "TRACK_DATE": null,
        "FIRE_URL": "https://wildfiresituation.nrs.gov.bc.ca/incidents?fireYear=2026&incidentNumber=N52047",
        "DATA_SOURCE": "incident-point"
      }
    },
    {
      "type": "Feature",
      "id": "bcws-incident-V31722",
      "geometry": {
        "bbox": [
          -122.4078,
          49.693983,
          -122.4078,
          49.693983
        ],
        "type": "Point",
        "coordinates": [
          -122.4078,
          49.693983
        ]
      },
      "properties": {
        "FIRE_NUMBER": "V31722",
        "INCIDENT_NAME": "V31722",
        "INCIDENT_NUMBER_LABEL": "V31722",
        "INCIDENT_FIRE_YEAR": 2026,
        "FIRE_STATUS": "Under Control",
        "FIRE_SIZE_HECTARES": null,
        "TRACK_DATE": null,
        "FIRE_URL": "https://wildfiresituation.nrs.gov.bc.ca/incidents?fireYear=2026&incidentNumber=V31722",
        "DATA_SOURCE": "incident-point"
      }
    }
  ],
  "metadata": {
    "source": "https://wildfiresituation.nrs.gov.bc.ca/wfnews-api/publicPublishedIncident/features",
    "incident_point_count": 14,
    "generated_at_utc": "2026-10-07T21:18:04+00:00",
    "note": "Active BCWS incidents without a published perimeter."
  }
}
